SatCatId,ObjectName,LaunchYear,OrbitalPeriod,LaunchMass,StatusCode,Inclination,Status,UcsData,OrbitClassEstimated,LaunchSiteCountry,Owner,UseType,Purpose,LaunchVehicleClass,TLE1,TLE2,MeanMotion,Eccentricity,OrbitClass
43099,SUPERVIEW-1 03,2018,94.15,560.0,+,97.34,Active,1,LEO,PRC,China,Commercial,Earth Observation,Long March,1 43099U 18002A   25275.73602446  .00027694  00000+0  92049-3 0  9993,2 43099  97.3357 357.4708 0058598  24.3358 336.0629 15.29467291428880,15.29467291,0.0058598,LEO
43107,BEIDOU-3 M7,2018,773.23,800.0,+,54.56,Active,1,MEO,PRC,China,Government/Military,Navigation (Global or Regional Positioning),Long March,1 43107U 18003A   25273.46610847 -.00000030  00000+0  00000+0 0  9994,2 43107  54.5592 311.3635 0002505  95.4611 264.6300  1.86232594 52511,1.86232594,0.0002505,MEO
43108,BEIDOU-3 M8,2018,773.23,800.0,+,54.55,Active,1,MEO,PRC,China,Government/Military,Navigation (Global or Regional Positioning),Long March,1 43108U 18003B   25275.02127661 -.00000023  00000+0  00000+0 0  9998,2 43108  54.5508 311.2926 0004886 259.1523 100.8581  1.86231013 52557,1.86231013,0.0004886,MEO
43111,CARTOSAT-2F,2018,94.78,712.0,+,97.44,Active,1,LEO,India,India,Government,Earth Observation,PSLV,1 43111U 18004A   25275.41772558  .00021150  00000+0  10024-2 0  9990,2 43111  97.4427 334.1634 0001951  85.7485 274.3973 15.19324177428191,15.19324177,0.0001951,LEO
43113,LEO 1 (LEO VANTAGE 1),2018,98.25,100.0,P,99.26,Active,1,LEO,India,USA,Commercial,Communications,PSLV,1 43113U 18004C   25275.41362848  .00006328  00000+0  44542-3 0  9992,2 43113  99.2593 155.2375 0358288 149.3247 212.9446 14.65716846399695,14.65716846,0.0358288,LEO
43146,LKW-3,2018,94.21,-1.0,+,97.63,Active,1,LEO,PRC,China,Military,Earth Observation,Long March,1 43146U 18006A   25275.72935471  .00021527  00000+0  77897-3 0  9999,2 43146  97.6319  62.9972 0004175 129.6538 230.5070 15.28432686429299,15.28432686,0.0004175,LEO
43152,ASNARO-2,2018,94.59,570.0,+,97.4,Active,1,LEO,Japan,Japan,Government,Earth Observation,Epsilon,1 43152U 18007A   25274.41680050  .00002497  00000+0  11120-3 0  9994,2 43152  97.4044 280.3142 0001574  72.5779 287.5629 15.22381024428044,15.22381024,0.0001574,LEO
43159,JILIN-1 07,2018,94.14,95.0,+,97.2,Active,1,LEO,PRC,China,Commercial,Earth Observation,Long March,1 43159U 18008E   25275.73221222  .00016636  00000+0  58128-3 0  9999,2 43159  97.2023 298.1048 0007173 257.4067 102.6372 15.29608538425579,15.29608538,0.0007173,LEO
43160,JILIN-1 08,2018,94.18,95.0,+,97.2,Active,1,LEO,PRC,China,Commercial,Earth Observation,Long March,1 43160U 18008F   25275.73683785  .00017200  00000+0  61160-3 0  9995,2 43160  97.2038 297.6283 0004630 276.3362  83.7351 15.29042638425541,15.29042638,0.000463,LEO
43162,SBIRS GEO-3 (USA 282),2018,1436.09,4500.0,+,2.08,Active,1,GSO,USA,USA,Military,Earth Observation,Atlas,1 43162U 18009A   25275.53803850  .00000129  00000+0  00000+0 0  9997,2 43162   2.0842 358.6567 0001882 193.6136 213.5464  1.00272507 28269,1.00272507,0.0001882,GSO
43169,WEINA 1A,2018,96.04,1.0,+,35.0,Active,1,LEO,PRC,China,Government,Technology Development,Long March,1 43169U 18011A   25275.45979271  .00006593  00000+0  53072-3 0  9991,2 43169  34.9962 286.8342 0003080 299.2293  60.8106 14.99332147419398,14.99332147,0.000308,LEO
43170,YAOGAN-30 05A,2018,95.95,-1.0,+,35.0,Active,1,LEO,PRC,China,Military,Earth Observation,Long March,1 43170U 18011B   25275.44224583  .00011621  00000+0  89853-3 0  9995,2 43170  34.9964 279.8867 0004699 230.5377 129.4915 15.00760096419373,15.00760096,0.0004699,LEO
43171,YAOGAN-30 05B,2018,95.95,-1.0,+,35.0,Active,1,LEO,PRC,China,Military,Earth Observation,Long March,1 43171U 18011C   25275.43688584  .00011521  00000+0  89119-3 0  9994,2 43171  34.9955 279.6898 0003167 252.2060 107.8302 15.00751873419446,15.00751873,0.0003167,LEO
43172,YAOGAN-30 05C,2018,95.95,-1.0,+,35.0,Active,1,LEO,PRC,China,Military,Earth Observation,Long March,1 43172U 18011D   25275.43098980  .00011767  00000+0  91002-3 0  9996,2 43172  34.9970 279.9461 0003530 310.7338  49.3063 15.00756339419317,15.00756339,0.000353,LEO
43174,AL YAH 3,2018,1436.1,3795.0,+,0.88,Active,1,GSO,French Guiana,UAE,Commercial,Communications,Ariane,1 43174U 18012A   25275.35154756 -.00000154  00000+0  00000+0 0  9997,2 43174   0.8789  86.3157 0002922 101.6777 289.8152  1.00271870 28266,1.0027187,0.0002922,GEO
43175,SES-14,2018,1436.1,4423.0,+,0.01,Active,1,GSO,French Guiana,SES,Commercial,Communications,Ariane,1 43175U 18012B   25275.48884042 -.00000278  00000+0  00000+0 0  9997,2 43175   0.0055 165.7207 0001145  13.7505 320.4884  1.00271666  4442,1.00271666,0.0001145,GEO
43180,KANOPUS-V 3,2018,94.55,500.0,+,97.37,Active,1,LEO,Russia,Russia/USSR,Government,Earth Observation,Soyuz,1 43180U 18014A   25274.36160030 -.00000066  00000+0  12191-6 0  9991,2 43180  97.3670 179.8214 0001940  97.5402 262.6055 15.23004747425328,15.23004747,0.000194,LEO
43181,KANOPUS-V 4,2018,94.55,500.0,+,97.37,Active,1,LEO,Russia,Russia/USSR,Government,Earth Observation,Soyuz,1 43181U 18014B   25275.70880058  .00007848  00000+0  33646-3 0  9999,2 43181  97.3678 181.2705 0001934  92.1905 267.9553 15.23013297425546,15.23013297,0.0001934,LEO
43182,LEMUR-2-JIN-LUEN,2018,93.24,10.0,+,97.55,Active,1,LEO,Russia,USA,Commercial,Earth Observation,Soyuz,1 43182U 18014C   25275.67168950  .00086116  00000+0  18412-2 0  9994,2 43182  97.5476 191.4944 0009988 117.5289 242.6975 15.44459053420862,15.44459053,0.0009988,LEO
43184,LEMUR-2-KADI,2018,93.39,10.0,+,97.5,Active,1,LEO,Russia,USA,Commercial,Earth Observation,Soyuz,1 43184U 18014E   25275.70569841  .00077013  00000+0  17958-2 0  9994,2 43184  97.4973 188.8009 0009476 104.4311 255.7988 15.41914252420885,15.41914252,0.0009476,LEO
43186,S-NET D,2018,95.17,8.5,+,97.55,Active,1,LEO,Russia,Germany,Civil,Technology Development,Soyuz,1 43186U 18014G   25275.69135912  .00013888  00000+0  78691-3 0  9994,2 43186  97.5485 177.4218 0008688 176.5387 183.5905 15.13086423419771,15.13086423,0.0008688,LEO
43187,S-NET B,2018,95.17,8.5,+,97.55,Active,1,LEO,Russia,Germany,Civil,Technology Development,Soyuz,1 43187U 18014H   25275.69830720  .00013237  00000+0  75062-3 0  9991,2 43187  97.5492 177.4058 0009557 172.2870 187.8510 15.13064257419778,15.13064257,0.0009557,LEO
43188,S-NET A,2018,95.17,9.0,+,97.55,Active,1,LEO,Russia,Germany,Civil,Technology Development,Soyuz,1 43188U 18014J   25275.69133728  .00014115  00000+0  79943-3 0  9994,2 43188  97.5500 177.5648 0009378 173.1321 187.0040 15.13092460419774,15.1309246,0.0009378,LEO
43189,S-NET C,2018,95.17,9.0,+,97.55,Active,1,LEO,Russia,Germany,Civil,Technology Development,Soyuz,1 43189U 18014K   25275.70100454  .00012846  00000+0  72843-3 0  9998,2 43189  97.5516 177.6082 0011143 167.2964 192.8550 15.13058367418323,15.13058367,0.0011143,LEO
43194,ZHANGHENG 1-01 (CSES-1),2018,94.68,730.0,+,97.66,Active,1,LEO,PRC,China,Government,Earth Observation,Long March,1 43194U 18015C   25275.74667616  .00021416  00000+0  96576-3 0  9999,2 43194  97.6621  71.7016 0018085 108.2264 252.0941 15.20896197425519,15.20896197,0.0018085,LEO
43207,BEIDOU-3 M4,2018,773.23,800.0,+,56.42,Active,1,MEO,PRC,China,Government/Military,Navigation (Global or Regional Positioning),Long March,1 43207U 18018A   25274.92590111  .00000032  00000+0  00000+0 0  9995,2 43207  56.4231  71.6791 0005121  38.4014 321.6593  1.86231179 51934,1.86231179,0.0005121,MEO
43208,BEIDOU-3 M3,2018,773.27,800.0,+,56.42,Active,1,MEO,PRC,China,Government/Military,Navigation (Global or Regional Positioning),Long March,1 43208U 18018B   25273.38182135  .00000023  00000+0  00000+0 0  9998,2 43208  56.4190  71.8095 0006692 327.9361  32.0458  1.86221902 51906,1.86221902,0.0006692,MEO
43215,PAZ,2018,94.79,1450.0,+,97.45,Active,1,LEO,USA,Spain,Commercial/Military,Earth Observation,Falcon,1 43215U 18020A   25275.69388440  .00003291  00000+0  15990-3 0  9990,2 43215  97.4469 281.7916 0001690  86.6579 273.4849 15.19140623421913,15.19140623,0.000169,LEO
43226,GOES 17,2018,1436.1,5211.0,B,0.27,Active,1,GSO,USA,USA,Government,Earth Observation,Atlas,1 43226U 18022A   25275.55190522 -.00000182  00000+0  00000+0 0  9990,2 43226   0.2690  91.4262 0002540 152.4371 236.8653  1.00271604 27849,1.00271604,0.000254,GEO
43228,HISPASAT 30W-6,2018,1436.12,6100.0,+,0.03,Active,1,GSO,USA,Spain,Commercial,Communications,Falcon,1 43228U 18023A   25275.42096786  .00000000  00000+0  00000+0 0  9994,2 43228   0.0263  76.3922 0002827 101.4186 315.1246  1.00270324 27821,1.00270324,0.0002827,GEO
43229,PODSAT,2018,177.66,-1.0,+,26.87,Active,0,MEO,USA,USA,Unknown,Unknown,Unknown,1 43229U 18023B   25274.82836992  .00097200  00000+0  99234-3 0  9998,2 43229  26.8681 331.0026 3716343 247.0974  69.9368  8.10552159171183,8.10552159,0.3716343,MEO
43231,O3B FM15,2018,287.93,650.0,+,0.05,Active,1,MEO,French Guiana,O3b Networks,Commercial,Communications,Soyuz,1 43231U 18024A   25274.83421230 -.00000018  00000+0  00000+0 0  9999,2 43231   0.0485 354.3645 0002905 192.4888 173.1475  5.00115410138106,5.0011541,0.0002905,MEO
43232,O3B FM16,2018,287.93,650.0,+,0.05,Active,1,MEO,French Guiana,O3b Networks,Commercial,Communications,Soyuz,1 43232U 18024B   25275.08655252 -.00000018  00000+0  00000+0 0  9991,2 43232   0.0477 349.4261 0003168 209.0421 161.5251  5.00115624138039,5.00115624,0.0003168,MEO
43233,O3B FM14,2018,287.93,650.0,+,0.05,Active,1,MEO,French Guiana,O3b Networks,Commercial,Communications,Soyuz,1 43233U 18024C   25275.32711117 -.00000018  00000+0  00000+0 0  9992,2 43233   0.0485 348.2518 0002755 204.1486 167.5976  5.00115381138051,5.00115381,0.0002755,MEO
43234,O3B FM13,2018,287.93,650.0,+,0.06,Active,1,MEO,French Guiana,O3b Networks,Commercial,Communications,Soyuz,1 43234U 18024D   25264.39900342 -.00000029  00000+0  00000+0 0  9990,2 43234   0.0597  17.8596 0005303 160.5406 181.6027  5.00115674137610,5.00115674,0.0005303,MEO
